{
  "type": "FeatureCollection",
  "features": [
    {
      "type": "Feature",
      "properties": {
        "psgc": "1381300095",
        "correspondence": "137404095",
        "name": "San Agustin",
        "geo_lvl": "Bgy",
        "city_lvl": null,
        "level": "barangay",
        "municity_psgc": "1381300000",
        "province_psgc": "1300000000",
        "region_psgc": "1300000000"
      },
      "geometry": {
        "type": "Polygon",
        "coordinates": [
          [
            [
              121.03942731100005,
              14.73576217200002
            ],
            [
              121.0392933510001,
              14.735761083000057
            ],
            [
              121.03927265800007,
              14.735759994000036
            ],
            [
              121.03925087600008,
              14.735761083000057
            ],
            [
              121.03855357700003,
              14.735755093000025
            ],
            [
              121.03855003800004,
              14.735577569000041
            ],
            [
              121.03856855200002,
              14.73496113600004
            ],
            [
              121.03853587900007,
              14.73495024500005
            ],
            [
              121.03856201800009,
              14.734830443000014
            ],
            [
              121.03834964200007,
              14.734770542000033
            ],
            [
              121.03826360300002,
              14.734754206000051
            ],
            [
              121.03808716800008,
              14.734718265000026
            ],
            [
              121.03802182200002,
              14.73467796800003
            ],
            [
              121.03825289400004,
              14.734424933000067
            ],
            [
              121.03811566600007,
              14.734312392000042
            ],
            [
              121.03811058400005,
              14.73429787100002
            ],
            [
              121.03804886800003,
              14.734279719000028
            ],
            [
              121.03805104600009,
              14.734235429000025
            ],
            [
              121.0380053040001,
              14.734208564000024
            ],
            [
              121.0379595610001,
              14.734178796000037
            ],
            [
              121.03789348900013,
              14.734170083000038
            ],
            [
              121.0378383080001,
              14.734203482000057
            ],
            [
              121.03781870400007,
              14.734179522000034
            ],
            [
              121.03782378600012,
              14.734169357000043
            ],
            [
              121.03780127800007,
              14.734146848000021
            ],
            [
              121.03773665800009,
              14.734210017000066
            ],
            [
              121.03770108100002,
              14.734162096000034
            ],
            [
              121.03762339100001,
              14.73416645200007
            ],
            [
              121.03750068500004,
              14.734168631000047
            ],
            [
              121.03749923300006,
              14.73410546300005
            ],
            [
              121.03749923300006,
              14.734090941000032
            ],
            [
              121.03751157600004,
              14.734089489000041
            ],
            [
              121.03752246700003,
              14.734085859000063
            ],
            [
              121.03753190600001,
              14.73408077600004
            ],
            [
              121.03754606500003,
              14.73406879600003
            ],
            [
              121.03760632800005,
              14.734014341000037
            ],
            [
              121.03761794600008,
              14.734011436000062
            ],
            [
              121.03764335800008,
              14.734005628000034
            ],
            [
              121.03767094900002,
              14.734001998000052
            ],
            [
              121.0376861960001,
              14.73400054500007
            ],
            [
              121.03779147600005,
              14.733989654000023
            ],
            [
              121.03781616300012,
              14.733986024000046
            ],
            [
              121.03783867100002,
              14.73398021500003
            ],
            [
              121.03785174000006,
              14.733972229000067
            ],
            [
              121.03786553500004,
              14.733960612000025
            ],
            [
              121.03788150900004,
              14.733943186000037
            ],
            [
              121.03790111300009,
              14.733911239000069
            ],
            [
              121.03791999100007,
              14.733876388000056
            ],
            [
              121.03794104700013,
              14.73385315300004
            ],
            [
              121.03796645900002,
              14.733830645000069
            ],
            [
              121.03802599700009,
              14.733792890000078
            ],
            [
              121.03807682200011,
              14.733769655000062
            ],
            [
              121.03817847100005,
              14.733736982000035
            ],
            [
              121.03819952700007,
              14.733728995000037
            ],
            [
              121.03822203600008,
              14.733721735000074
            ],
            [
              121.03824454400002,
              14.733712296000022
            ],
            [
              121.0382772170001,
              14.733700679000037
            ],
            [
              121.03833965900004,
              14.73375586000003
            ],
            [
              121.03882467300004,
              14.733451637000027
            ],
            [
              121.03884427700007,
              14.733440020000048
            ],
            [
              121.03886315500007,
              14.733438567000062
            ],
            [
              121.03888638900003,
              14.733436389000076
            ],
            [
              121.03896480500009,
              14.73341315500005
            ],
            [
              121.03896698300002,
              14.733384838000067
            ],
            [
              121.0389633530001,
              14.732923784000036
            ],
            [
              121.03885153800002,
              14.732884576000057
            ],
            [
              121.03886605900004,
              14.732862068000033
            ],
            [
              121.03888272400003,
              14.732834170000046
            ],
            [
              121.03912374700008,
              14.732444970000074
            ],
            [
              121.03913590100001,
              14.732421877000037
            ],
            [
              121.03915368900003,
              14.732394894000036
            ],
            [
              121.03917808800009,
              14.732364406000043
            ],
            [
              121.03921352800012,
              14.73231509400005
            ],
            [
              121.03854894800008,
              14.731545704000034
            ],
            [
              121.03724210200005,
              14.730976621000027
            ],
            [
              121.03827417800005,
              14.730476709000067
            ],
            [
              121.03887042400004,
              14.729851369000068
            ],
            [
              121.03888977300007,
              14.729830003000073
            ],
            [
              121.03904707200002,
              14.729986821000068
            ],
            [
              121.03933507500004,
              14.730291765000057
            ],
            [
              121.03980468600004,
              14.73008303600005
            ],
            [
              121.03982864600006,
              14.730067789000032
            ],
            [
              121.03984389400013,
              14.730054720000052
            ],
            [
              121.03985260700006,
              14.730037294000057
            ],
            [
              121.03985914100008,
              14.73001333400003
            ],
            [
              121.03988854700003,
              14.729566801000033
            ],
            [
              121.03990161600008,
              14.72902987200007
            ],
            [
              121.03989181400006,
              14.728996110000027
            ],
            [
              121.03987112100003,
              14.728951457000043
            ],
            [
              121.03983735900012,
              14.728898090000024
            ],
            [
              121.03981666600009,
              14.728868685000068
            ],
            [
              121.039752409,
              14.728793536000069
            ],
            [
              121.03972518100011,
              14.728775022000036
            ],
            [
              121.03968488500006,
              14.728755418000048
            ],
            [
              121.03960524400009,
              14.728730709000049
            ],
            [
              121.03916415600008,
              14.72860655100004
            ],
            [
              121.03913397900011,
              14.728696969000053
            ],
            [
              121.0391042560001,
              14.728688234000062
            ],
            [
              121.03890494900008,
              14.728634868000025
            ],
            [
              121.0389111620001,
              14.728614135000042
            ],
            [
              121.0392910370001,
              14.72734918000003
            ],
            [
              121.03934876000005,
              14.72725769500005
            ],
            [
              121.03925836400002,
              14.727169477000077
            ],
            [
              121.03926925500002,
              14.72708561600007
            ],
            [
              121.03935965100004,
              14.727094329000064
            ],
            [
              121.03942173000007,
              14.727007201000049
            ],
            [
              121.03950783100005,
              14.726949107000053
            ],
            [
              121.03961232300003,
              14.72689502300005
            ],
            [
              121.03962321400002,
              14.726758885000041
            ],
            [
              121.03948925400006,
              14.726539975000033
            ],
            [
              121.03943697700005,
              14.726437599000064
            ],
            [
              121.03935747200002,
              14.726440866000072
            ],
            [
              121.03932697800009,
              14.726410371000043
            ],
            [
              121.03917014600006,
              14.726309085000025
            ],
            [
              121.03899589000004,
              14.726262253000069
            ],
            [
              121.03896765200011,
              14.72629574200005
            ],
            [
              121.03887790200008,
              14.726385161000053
            ],
            [
              121.03869311900007,
              14.726365718000064
            ],
            [
              121.03865935600004,
              14.726360273000063
            ],
            [
              121.03862341600006,
              14.726357005000065
            ],
            [
              121.03841866400013,
              14.726334134000068
            ],
            [
              121.03841400100008,
              14.726193314000058
            ],
            [
              121.03821696800003,
              14.72618164700003
            ],
            [
              121.03808863800009,
              14.72597554100003
            ],
            [
              121.03801787400003,
              14.725858740000039
            ],
            [
              121.03804836900008,
              14.725728047000068
            ],
            [
              121.03782596300006,
              14.725673423000044
            ],
            [
              121.03779724000005,
              14.725665067000019
            ],
            [
              121.03774472300006,
              14.72582987300006
            ],
            [
              121.0377151030001,
              14.72582388900003
            ],
            [
              121.03752500500002,
              14.725765222000062
            ],
            [
              121.03726251200011,
              14.726140491000026
            ],
            [
              121.0363330890001,
              14.726058826000038
            ],
            [
              121.03613087200004,
              14.725712723000072
            ],
            [
              121.03600956500009,
              14.725570127000028
            ],
            [
              121.03600643000004,
              14.725564949000045
            ],
            [
              121.03599431800001,
              14.72555161200006
            ],
            [
              121.03597711000009,
              14.72553208300007
            ],
            [
              121.03580130400007,
              14.725294011000074
            ],
            [
              121.0358017430001,
              14.725280926000039
            ],
            [
              121.03559952900004,
              14.72525595200005
            ],
            [
              121.03546784800007,
              14.725251352000043
            ],
            [
              121.03548723600011,
              14.724713342000026
            ],
            [
              121.03519884300012,
              14.724698801000047
            ],
            [
              121.03492563400005,
              14.724693398000053
            ],
            [
              121.03492014300002,
              14.724432219000047
            ],
            [
              121.03518202000011,
              14.72430525500004
            ],
            [
              121.03528430500012,
              14.724069117000056
            ],
            [
              121.03500085300004,
              14.723995466000074
            ],
            [
              121.03513403400008,
              14.72340363500007
            ],
            [
              121.03528505800013,
              14.722807792000028
            ],
            [
              121.03576921300011,
              14.72288945600007
            ],
            [
              121.03602198500005,
              14.72225169400002
            ],
            [
              121.03586837800005,
              14.722175862000027
            ],
            [
              121.03572060300006,
              14.722094197000047
            ],
            [
              121.03541727700008,
              14.721886147000077
            ],
            [
              121.03541709200012,
              14.721872617000031
            ],
            [
              121.03541727700008,
              14.721832189000056
            ],
            [
              121.03464894700004,
              14.721802996000067
            ],
            [
              121.03429506800002,
              14.72179499200007
            ],
            [
              121.03429556300013,
              14.721842057000057
            ],
            [
              121.03429614400011,
              14.721897749000048
            ],
            [
              121.03428293000003,
              14.722188470000047
            ],
            [
              121.03431266200005,
              14.722337134000046
            ],
            [
              121.03433220200009,
              14.722444401000077
            ],
            [
              121.03427973800001,
              14.722639682000024
            ],
            [
              121.03419521400008,
              14.72283204800004
            ],
            [
              121.03400284800013,
              14.723109910000062
            ],
            [
              121.03378738300012,
              14.723374479000025
            ],
            [
              121.03378738300012,
              14.723457070000052
            ],
            [
              121.03378419500007,
              14.723522574000068
            ],
            [
              121.03384636900012,
              14.72360230400005
            ],
            [
              121.03379736100011,
              14.723691542000033
            ],
            [
              121.03372055700004,
              14.723867825000076
            ],
            [
              121.03372887100011,
              14.723908521000055
            ],
            [
              121.03374441600012,
              14.723990131000052
            ],
            [
              121.03381711500003,
              14.724131014000022
            ],
            [
              121.0338112730001,
              14.724155569000057
            ],
            [
              121.03381440400005,
              14.724185317000035
            ],
            [
              121.0338604210001,
              14.724184499000044
            ],
            [
              121.03385708500004,
              14.72429126400004
            ],
            [
              121.0338568520001,
              14.724355756000024
            ],
            [
              121.03366180300009,
              14.724343787000064
            ],
            [
              121.03366052800004,
              14.724364184000025
            ],
            [
              121.03364905500007,
              14.724431751000047
            ],
            [
              121.03361208400008,
              14.724435575000031
            ],
            [
              121.03358403800007,
              14.724774684000067
            ],
            [
              121.03355324400002,
              14.724796191000054
            ],
            [
              121.03339822900011,
              14.724859461000053
            ],
            [
              121.03329751700004,
              14.72484416300005
            ],
            [
              121.0331496350001,
              14.724805917000024
            ],
            [
              121.03305147200003,
              14.724775321000042
            ],
            [
              121.03295330900005,
              14.72471285400008
            ],
            [
              121.03279905300008,
              14.724605767000075
            ],
            [
              121.03264224700001,
              14.724494856000032
            ],
            [
              121.03233628400005,
              14.72425646000005
            ],
            [
              121.03231206200006,
              14.724236062000047
            ],
            [
              121.03217607700005,
              14.724382960000073
            ],
            [
              121.03248799100004,
              14.724646562000034
            ],
            [
              121.0325479080001,
              14.72469373100006
            ],
            [
              121.03261292500008,
              14.724753649000036
            ],
            [
              121.03268559100002,
              14.724842888000065
            ],
            [
              121.032707264,
              14.72487348400006
            ],
            [
              121.032477792,
              14.724997144000044
            ],
            [
              121.03140782700007,
              14.725680703000021
            ],
            [
              121.03125918100012,
              14.725505824000038
            ],
            [
              121.03003066000008,
              14.725623867000023
            ],
            [
              121.0303585570001,
              14.725794373000044
            ],
            [
              121.03050283200002,
              14.725890557000072
            ],
            [
              121.03056072000003,
              14.725916091000043
            ],
            [
              121.03092438800003,
              14.72655000700007
            ],
            [
              121.03094774300007,
              14.726603390000038
            ],
            [
              121.03096108800003,
              14.726653436000047
            ],
            [
              121.03096108800003,
              14.726713491000055
            ],
            [
              121.03096582700005,
              14.727418710000054
            ],
            [
              121.03095945300005,
              14.727450581000024
            ],
            [
              121.0309454300001,
              14.727477353000038
            ],
            [
              121.03093013200008,
              14.727495200000018
            ],
            [
              121.03084471700004,
              14.727584439000053
            ],
            [
              121.03082049500007,
              14.727609936000022
            ],
            [
              121.03061907000004,
              14.72739703700006
            ],
            [
              121.03058337400012,
              14.727375365000054
            ],
            [
              121.03056297700005,
              14.727371541000021
            ],
            [
              121.03054130400007,
              14.727374090000065
            ],
            [
              121.03034497800002,
              14.727437832000074
            ],
            [
              121.030308008,
              14.727451856000066
            ],
            [
              121.03026721300012,
              14.727460780000058
            ],
            [
              121.03027358700001,
              14.727487551000024
            ],
            [
              121.03027868600009,
              14.727513048000047
            ],
            [
              121.03010530800009,
              14.727613761000038
            ],
            [
              121.03033061400004,
              14.727876370000047
            ],
            [
              121.03051352300008,
              14.728083136000066
            ],
            [
              121.03013047500008,
              14.72833496600003
            ],
            [
              121.02973019700005,
              14.728554324000072
            ],
            [
              121.0297162800001,
              14.728514561000056
            ],
            [
              121.02959898000006,
              14.728574205000022
            ],
            [
              121.02956518200006,
              14.728522514000076
            ],
            [
              121.02924973100005,
              14.728623246000044
            ],
            [
              121.029174182,
              14.72846817100003
            ],
            [
              121.02902055200002,
              14.72847138700007
            ],
            [
              121.02898378700002,
              14.729180348000062
            ],
            [
              121.02878736700008,
              14.729425610000018
            ],
            [
              121.02793297100003,
              14.72985143400007
            ],
            [
              121.02736084300011,
              14.730136578000039
            ],
            [
              121.02732162700012,
              14.730574770000032
            ],
            [
              121.02751653300005,
              14.730546986000032
            ],
            [
              121.02753240100003,
              14.730544724000024
            ],
            [
              121.02804307400004,
              14.730683692000072
            ],
            [
              121.0280611620001,
              14.73068861400003
            ],
            [
              121.0281495060001,
              14.730714379000062
            ],
            [
              121.02815768000004,
              14.73094021300005
            ],
            [
              121.02832626300007,
              14.730940495000029
            ],
            [
              121.0283211100001,
              14.731257767000038
            ],
            [
              121.02831117400002,
              14.731869442000058
            ],
            [
              121.02790062000007,
              14.732190385000026
            ],
            [
              121.02777499400008,
              14.732288591000042
            ],
            [
              121.02778575700005,
              14.732652818000076
            ],
            [
              121.02800170200011,
              14.73269147700006
            ],
            [
              121.02803181600007,
              14.732956144000067
            ],
            [
              121.028081884,
              14.733364325000029
            ],
            [
              121.02854934600009,
              14.73331547300006
            ],
            [
              121.02857244000005,
              14.733174388000064
            ],
            [
              121.02961591200007,
              14.733342706000027
            ],
            [
              121.03122249000012,
              14.733026773000063
            ],
            [
              121.03124472900004,
              14.733022400000042
            ],
            [
              121.03135239400002,
              14.733001228000033
            ],
            [
              121.03115858200012,
              14.732206911000048
            ],
            [
              121.03190821800001,
              14.731987090000077
            ],
            [
              121.03215825500001,
              14.733171696000056
            ],
            [
              121.03223353500003,
              14.733245990000054
            ],
            [
              121.03231770700006,
              14.733376069000029
            ],
            [
              121.03279387900011,
              14.734112289000052
            ],
            [
              121.03290251300007,
              14.734654643000052
            ],
            [
              121.03292862800004,
              14.734785025000065
            ],
            [
              121.03313889100002,
              14.73488771400002
            ],
            [
              121.03356188600003,
              14.735304790000045
            ],
            [
              121.03359080500002,
              14.735334936000072
            ],
            [
              121.03362395600004,
              14.735366454000028
            ],
            [
              121.03397876600002,
              14.735899964000055
            ],
            [
              121.03454117200012,
              14.736003887000038
            ],
            [
              121.03514025700008,
              14.73607724400006
            ],
            [
              121.03540770600013,
              14.736113923000058
            ],
            [
              121.03594084800011,
              14.736097643000049
            ],
            [
              121.03594158400006,
              14.736097621000052
            ],
            [
              121.0359843440001,
              14.736162399000023
            ],
            [
              121.03639996000004,
              14.736150636000044
            ],
            [
              121.03643132800006,
              14.735962432000063
            ],
            [
              121.0366830710001,
              14.735988064000022
            ],
            [
              121.03735320400006,
              14.736003887000038
            ],
            [
              121.03789804500002,
              14.73601830500007
            ],
            [
              121.0378670330001,
              14.737144654000074
            ],
            [
              121.0378658080001,
              14.737173243000028
            ],
            [
              121.03789031200006,
              14.737187946000063
            ],
            [
              121.03790256500007,
              14.737210001000049
            ],
            [
              121.03790134000008,
              14.737361931000072
            ],
            [
              121.03789317100008,
              14.737440346000032
            ],
            [
              121.03788010200002,
              14.737541633000031
            ],
            [
              121.03786539900011,
              14.737582474000023
            ],
            [
              121.03790950800011,
              14.737582474000027
            ],
            [
              121.03941935900002,
              14.737598432000027
            ],
            [
              121.03942731100005,
              14.73576217200002
            ]
          ]
        ]
      }
    }
  ]
}