{"type":"FeatureCollection","features":[{"type":"Feature","properties":{"name":"Katarungan Street","highway":"residential","osm_id":24053352},"geometry":{"type":"LineString","coordinates":[[121.039027,14.729373],[121.038996,14.729392],[121.038701,14.729716]]}},{"type":"Feature","properties":{"name":"Magdiwang Street","highway":"residential","osm_id":24053369},"geometry":{"type":"LineString","coordinates":[[121.0384,14.730049],[121.038318,14.729986],[121.038233,14.729913],[121.038142,14.729782],[121.038108,14.72971],[121.038052,14.729586],[121.037856,14.729143],[121.037827,14.729105],[121.037775,14.729079]]}},{"type":"Feature","properties":{"name":"Sampaloc Street","highway":"residential","osm_id":24053383},"geometry":{"type":"LineString","coordinates":[[121.040011,14.731158],[121.039718,14.730778],[121.039652,14.7307],[121.039382,14.730396],[121.039323,14.730324],[121.039116,14.730084],[121.039056,14.730027],[121.038817,14.729818],[121.038786,14.729791]]}},{"type":"Feature","properties":{"name":"Katarungan Street","highway":"residential","osm_id":24053521},"geometry":{"type":"LineString","coordinates":[[121.038224,14.730215],[121.038277,14.730185],[121.0384,14.730049],[121.038701,14.729716]]}},{"type":"Feature","properties":{"name":"P. Orbe Street","highway":"residential","osm_id":24053526},"geometry":{"type":"LineString","coordinates":[[121.037282,14.728892],[121.037317,14.72893],[121.037346,14.728974],[121.037518,14.729387],[121.037554,14.729428],[121.037618,14.729467]]}},{"type":"Feature","properties":{"name":"Pangaral Street","highway":"residential","osm_id":24053561},"geometry":{"type":"LineString","coordinates":[[121.038156,14.728339],[121.037817,14.728989],[121.037775,14.729079],[121.037718,14.72922],[121.037618,14.729467],[121.037477,14.729827]]}},{"type":"Feature","properties":{"name":"Asuncion Street","highway":"residential","osm_id":24054031},"geometry":{"type":"LineString","coordinates":[[121.034764,14.731759],[121.035189,14.731994],[121.035192,14.731995]]}},{"type":"Feature","properties":{"name":"Atis Street","highway":"residential","osm_id":24054033},"geometry":{"type":"LineString","coordinates":[[121.039453,14.732429],[121.039148,14.732436]]}},{"type":"Feature","properties":{"name":"Paraiso Street","highway":"residential","osm_id":24054034},"geometry":{"type":"LineString","coordinates":[[121.038807,14.732878],[121.038529,14.73273],[121.037651,14.732258],[121.03679,14.731793],[121.035909,14.731321]]}},{"type":"Feature","properties":{"name":"Acacia Street","highway":"residential","osm_id":24054035},"geometry":{"type":"LineString","coordinates":[[121.036276,14.732696],[121.036528,14.732253],[121.03679,14.731793],[121.037044,14.731347]]}},{"type":"Feature","properties":{"name":"Jordan Street","highway":"residential","osm_id":24054037},"geometry":{"type":"LineString","coordinates":[[121.037623,14.734025],[121.037392,14.733883],[121.036885,14.733621],[121.036002,14.733147],[121.035144,14.73269]]}},{"type":"Feature","properties":{"name":"Bethlehem Street","highway":"residential","osm_id":24054038},"geometry":{"type":"LineString","coordinates":[[121.038789,14.73228],[121.038529,14.73273],[121.038285,14.733188],[121.038035,14.73364]]}},{"type":"Feature","properties":{"name":"Selecta Street","highway":"residential","osm_id":24054043},"geometry":{"type":"LineString","coordinates":[[121.03938,14.737717],[121.038367,14.737707],[121.037882,14.737682],[121.037808,14.737669],[121.037395,14.737549],[121.036695,14.737294],[121.036323,14.737163],[121.036107,14.737087],[121.034409,14.736492],[121.034153,14.736403],[121.03399,14.736345],[121.033929,14.736307],[121.033668,14.736098],[121.033332,14.735828]]}},{"type":"Feature","properties":{"name":"Heavenly Drive","highway":"residential","osm_id":24054120},"geometry":{"type":"LineString","coordinates":[[121.036415,14.728599],[121.036445,14.728598],[121.036628,14.728721],[121.037079,14.72902]]}},{"type":"Feature","properties":{"name":"Don Alejandro Avenue","highway":"tertiary","osm_id":24054121},"geometry":{"type":"LineString","coordinates":[[121.033609,14.734787],[121.033415,14.734684],[121.033354,14.734643],[121.033302,14.734596],[121.033256,14.734539],[121.033219,14.734472],[121.033044,14.734124],[121.032779,14.733598],[121.032731,14.733502],[121.032616,14.73328]]}},{"type":"Feature","properties":{"name":"Doña Azucena Street","highway":"residential","osm_id":24054122},"geometry":{"type":"LineString","coordinates":[[121.035068,14.731235],[121.034816,14.73167],[121.034764,14.731759],[121.034745,14.731795],[121.034723,14.731837],[121.034694,14.731908],[121.034674,14.731981],[121.034575,14.73245],[121.034558,14.732531],[121.034538,14.732639],[121.034512,14.732719],[121.034485,14.732772]]}},{"type":"Feature","properties":{"name":"Santo Niño Street","highway":"residential","osm_id":24054123},"geometry":{"type":"LineString","coordinates":[[121.03398,14.733263],[121.033976,14.733333],[121.033964,14.733401],[121.03394,14.733481],[121.033907,14.733563],[121.033752,14.73392],[121.03359,14.73423],[121.033354,14.734643]]}},{"type":"Feature","properties":{"name":"Del Rey Street","highway":"residential","osm_id":24054124},"geometry":{"type":"LineString","coordinates":[[121.033242,14.73351],[121.03359,14.73423]]}},{"type":"Feature","properties":{"name":"JoyVille Drive","highway":"residential","osm_id":24054125},"geometry":{"type":"LineString","coordinates":[[121.0346,14.734424],[121.034824,14.734538],[121.034851,14.734581],[121.03486,14.734633],[121.034844,14.734874],[121.03479,14.73509],[121.034786,14.73514],[121.034814,14.735346],[121.034822,14.735567],[121.034828,14.735925]]}},{"type":"Feature","properties":{"name":"Happiness Street","highway":"residential","osm_id":24054126},"geometry":{"type":"LineString","coordinates":[[121.035304,14.735953],[121.035297,14.73593],[121.035277,14.735372],[121.03525,14.735247],[121.035055,14.735028],[121.035031,14.734938],[121.035009,14.734905],[121.034977,14.73489],[121.034844,14.734874]]}},{"type":"Feature","properties":{"name":"Socorro Street","highway":"residential","osm_id":24054127},"geometry":{"type":"LineString","coordinates":[[121.031191,14.730738],[121.03111,14.730826],[121.031083,14.730868],[121.031064,14.730915],[121.031052,14.730968],[121.031035,14.731288],[121.031042,14.731327],[121.031061,14.731358],[121.031317,14.73148],[121.032171,14.731792]]}},{"type":"Feature","properties":{"name":"Doña Maria Street","highway":"residential","osm_id":24054128},"geometry":{"type":"LineString","coordinates":[[121.03248,14.732975],[121.032811,14.732966],[121.033251,14.732973],[121.033357,14.732934],[121.033704,14.732714],[121.034013,14.732512],[121.034066,14.732488],[121.034105,14.732479],[121.034147,14.732477],[121.034216,14.732481],[121.034489,14.732521],[121.034558,14.732531]]}},{"type":"Feature","properties":{"name":"Don Paulo Street","highway":"residential","osm_id":24054129},"geometry":{"type":"LineString","coordinates":[[121.034662,14.731094],[121.034483,14.731375],[121.034275,14.731784],[121.034147,14.732477]]}},{"type":"Feature","properties":{"name":"Don Juancho Street","highway":"residential","osm_id":24054130},"geometry":{"type":"LineString","coordinates":[[121.034177,14.731106],[121.034021,14.731406],[121.033978,14.731512],[121.033842,14.731864],[121.033704,14.732714]]}},{"type":"Feature","properties":{"name":"Don Benjamin Street","highway":"residential","osm_id":24054131},"geometry":{"type":"LineString","coordinates":[[121.033684,14.731158],[121.033563,14.731403],[121.03353,14.731482],[121.033504,14.731561],[121.03349,14.731628],[121.033251,14.732973]]}},{"type":"Feature","properties":{"name":"Don Mariano Street","highway":"residential","osm_id":24054132},"geometry":{"type":"LineString","coordinates":[[121.03288,14.732634],[121.032841,14.732596],[121.032813,14.732558],[121.032792,14.732515],[121.032777,14.732459],[121.032528,14.731449],[121.032518,14.731409],[121.032412,14.730993]]}},{"type":"Feature","properties":{"name":"Doña Marina Street","highway":"residential","osm_id":24054133},"geometry":{"type":"LineString","coordinates":[[121.033165,14.731261],[121.03288,14.732634],[121.032811,14.732966]]}},{"type":"Feature","properties":{"name":"Emmanuel Street","highway":"residential","osm_id":24054135},"geometry":{"type":"LineString","coordinates":[[121.033345,14.730008],[121.033361,14.730025],[121.033365,14.730047],[121.03336,14.730384],[121.033337,14.730799],[121.033297,14.731227]]}},{"type":"Feature","properties":{"name":"Joselito Street","highway":"residential","osm_id":24054136},"geometry":{"type":"LineString","coordinates":[[121.033337,14.730799],[121.032633,14.730987],[121.032564,14.730999],[121.032494,14.731002],[121.032412,14.730993]]}},{"type":"Feature","properties":{"name":"Magsaysay Street","highway":"residential","osm_id":24054139},"geometry":{"type":"LineString","coordinates":[[121.033417,14.728891],[121.033377,14.729001],[121.033339,14.729107],[121.033285,14.729236],[121.033256,14.729323],[121.033215,14.729515],[121.033174,14.729785],[121.033171,14.729796],[121.033166,14.729809],[121.033158,14.72982],[121.033148,14.729826],[121.033029,14.729876]]}},{"type":"Feature","properties":{"name":"San Francisco Drive","highway":"residential","osm_id":24054140},"geometry":{"type":"LineString","coordinates":[[121.032603,14.72905],[121.032613,14.728995],[121.032624,14.728916],[121.032629,14.728853],[121.032637,14.728783],[121.032733,14.728581]]}},{"type":"Feature","properties":{"name":"E. Aguinaldo Street","highway":"residential","osm_id":24054141},"geometry":{"type":"LineString","coordinates":[[121.033683,14.727271],[121.033953,14.726889],[121.033987,14.726846],[121.034025,14.726811],[121.034082,14.726773],[121.034419,14.726563]]}},{"type":"Feature","properties":{"name":"P. Rivera Street","highway":"residential","osm_id":24054143},"geometry":{"type":"LineString","coordinates":[[121.030794,14.727664],[121.030917,14.727491],[121.030956,14.72736],[121.030958,14.726949],[121.030942,14.726639],[121.030716,14.726248],[121.030558,14.72595]]}},{"type":"Feature","properties":{"name":"M. Roxas Street","highway":"residential","osm_id":24054144},"geometry":{"type":"LineString","coordinates":[[121.032916,14.725762],[121.032101,14.726264],[121.031531,14.726587]]}},{"type":"Feature","properties":{"name":"M. L. Quezon Street","highway":"residential","osm_id":24054145},"geometry":{"type":"LineString","coordinates":[[121.032101,14.726264],[121.032114,14.727297],[121.032121,14.727895]]}},{"type":"Feature","properties":{"name":"Lakandula Street","highway":"residential","osm_id":24054146},"geometry":{"type":"LineString","coordinates":[[121.033266,14.7269],[121.033109,14.72712],[121.032555,14.727897]]}},{"type":"Feature","properties":{"name":"Rosal Street","highway":"residential","osm_id":24054148},"geometry":{"type":"LineString","coordinates":[[121.034206,14.727282],[121.034229,14.727301],[121.034252,14.727325],[121.034271,14.727353],[121.034441,14.727682],[121.034459,14.72773],[121.034468,14.727763],[121.034473,14.727801],[121.034478,14.727917]]}},{"type":"Feature","properties":{"name":"General Malvar Street","highway":"residential","osm_id":24054149},"geometry":{"type":"LineString","coordinates":[[121.034857,14.727161],[121.034786,14.727081],[121.034554,14.72672]]}},{"type":"Feature","properties":{"name":"Ambrosia Street","highway":"tertiary","osm_id":24054150},"geometry":{"type":"LineString","coordinates":[[121.031288,14.726107],[121.031861,14.725749],[121.032094,14.725606],[121.032741,14.725213],[121.03281,14.725196],[121.032859,14.725193],[121.032879,14.725194],[121.032915,14.725196],[121.033475,14.725208],[121.033598,14.725185],[121.033678,14.725136],[121.033732,14.725089],[121.033791,14.724998],[121.03382,14.724892],[121.033837,14.724738],[121.033839,14.724388],[121.033847,14.724237],[121.03386,14.724175],[121.033976,14.723946],[121.034162,14.723581],[121.034336,14.72325],[121.03439,14.723139],[121.034439,14.723033],[121.034492,14.722854],[121.034617,14.722121],[121.034637,14.721992],[121.034664,14.721849]]}},{"type":"Feature","properties":{"name":"E. Quirino Street","highway":"residential","osm_id":24054151},"geometry":{"type":"LineString","coordinates":[[121.033475,14.725208],[121.033495,14.726033],[121.033503,14.726128],[121.033523,14.726234],[121.033553,14.726317],[121.033594,14.726398],[121.033647,14.726482],[121.033953,14.726889]]}},{"type":"Feature","properties":{"name":"Fidel Cruz","highway":"residential","osm_id":24054152},"geometry":{"type":"LineString","coordinates":[[121.03455,14.724652],[121.034536,14.724607],[121.03451,14.724541],[121.034359,14.724253]]}},{"type":"Feature","properties":{"name":"Pedro Cruz Street","highway":"residential","osm_id":24054154},"geometry":{"type":"LineString","coordinates":[[121.034492,14.722854],[121.034855,14.722993],[121.034911,14.723059],[121.034928,14.723106],[121.034944,14.72318],[121.034935,14.723278],[121.034907,14.723376],[121.034586,14.723963],[121.034519,14.72407],[121.03444,14.724178],[121.034359,14.724253]]}},{"type":"Feature","properties":{"name":"Sampaguita Street","highway":"residential","osm_id":24054163},"geometry":{"type":"LineString","coordinates":[[121.033798,14.724388],[121.033773,14.724387],[121.033385,14.724381],[121.033044,14.72428],[121.032526,14.724162],[121.032442,14.724133],[121.03212,14.723781],[121.032053,14.723736],[121.031819,14.72365]]}},{"type":"Feature","properties":{"name":"Titus","highway":"path","osm_id":24054201},"geometry":{"type":"LineString","coordinates":[[121.03138,14.73183],[121.031328,14.731817],[121.031251,14.731794],[121.031041,14.731728],[121.030952,14.7317],[121.030905,14.731684],[121.030687,14.731602],[121.03064,14.731579],[121.030582,14.731533],[121.030566,14.731518],[121.030541,14.731494],[121.030496,14.731448],[121.030439,14.731403],[121.030307,14.731312],[121.030178,14.73122],[121.030125,14.731172],[121.030095,14.731133]]}},{"type":"Feature","properties":{"name":"Kalapati Street","highway":"residential","osm_id":27462916},"geometry":{"type":"LineString","coordinates":[[121.036213,14.737851],[121.036036,14.737755],[121.035497,14.737584],[121.035033,14.737414],[121.034548,14.737254],[121.034259,14.737157],[121.034075,14.737098],[121.033971,14.737062],[121.033838,14.737022],[121.033797,14.73701],[121.033751,14.737002],[121.033708,14.736999],[121.033649,14.737002],[121.033616,14.737007],[121.03359,14.73701]]}},{"type":"Feature","properties":{"name":"Fatima Street","highway":"residential","osm_id":28188473},"geometry":{"type":"LineString","coordinates":[[121.031567,14.729586],[121.03191,14.729727],[121.032254,14.729865],[121.032604,14.73002],[121.032806,14.730104],[121.032853,14.73012],[121.032906,14.730123],[121.032953,14.730118],[121.033289,14.730001],[121.033319,14.730001],[121.033345,14.730008]]}},{"type":"Feature","properties":{"name":"Gerardo Street","highway":"residential","osm_id":28188474},"geometry":{"type":"LineString","coordinates":[[121.032604,14.73002],[121.032552,14.730152],[121.032499,14.730268],[121.032343,14.730535],[121.032114,14.730883]]}},{"type":"Feature","properties":{"name":"Immaculada Street","highway":"residential","osm_id":28188475},"geometry":{"type":"LineString","coordinates":[[121.032343,14.730535],[121.032436,14.730576],[121.032488,14.730593],[121.032543,14.730597],[121.032582,14.730593],[121.03336,14.730384]]}},{"type":"Feature","properties":{"name":"Phillip Street","highway":"residential","osm_id":28188477},"geometry":{"type":"LineString","coordinates":[[121.032254,14.729865],[121.032201,14.730006],[121.032167,14.730087],[121.032135,14.730147],[121.031795,14.730705]]}},{"type":"Feature","properties":{"name":"Pearl Street","highway":"residential","osm_id":28188492},"geometry":{"type":"LineString","coordinates":[[121.037693,14.725965],[121.037867,14.726137],[121.037928,14.726211],[121.037981,14.726311],[121.038009,14.726407],[121.03802,14.726523],[121.03802,14.72665]]}},{"type":"Feature","properties":{"name":"Rizalina Street","highway":"residential","osm_id":28189011},"geometry":{"type":"LineString","coordinates":[[121.031746,14.735417],[121.031751,14.735396],[121.031761,14.735372],[121.032025,14.734867],[121.032253,14.734408],[121.032454,14.734031]]}},{"type":"Feature","properties":{"name":"Emma Street","highway":"residential","osm_id":28189013},"geometry":{"type":"LineString","coordinates":[[121.032144,14.733574],[121.032454,14.734031],[121.032676,14.734439],[121.032734,14.734568],[121.032838,14.734849],[121.032843,14.734877],[121.032835,14.734906],[121.032285,14.73602]]}},{"type":"Feature","properties":{"name":"Maricar Street","highway":"residential","osm_id":28189016},"geometry":{"type":"LineString","coordinates":[[121.032676,14.734439],[121.031909,14.735918]]}},{"type":"Feature","properties":{"name":"Narra Street","highway":"residential","osm_id":28189172},"geometry":{"type":"LineString","coordinates":[[121.036664,14.734067],[121.036657,14.734091],[121.036653,14.734117],[121.036653,14.734144],[121.036657,14.734177],[121.036691,14.734321],[121.036728,14.734476],[121.036735,14.734506],[121.03674,14.734539],[121.036741,14.734577],[121.036733,14.734974],[121.036736,14.735011],[121.036752,14.735042],[121.03678,14.735068]]}},{"type":"Feature","properties":{"name":"Lawaan Street","highway":"residential","osm_id":28189179},"geometry":{"type":"LineString","coordinates":[[121.03678,14.735068],[121.03682,14.735092],[121.036871,14.73511],[121.036945,14.735122],[121.037024,14.735125],[121.038309,14.735157],[121.038393,14.735155],[121.038415,14.73516]]}},{"type":"Feature","properties":{"name":"Sampaloc Street","highway":"residential","osm_id":28189180},"geometry":{"type":"LineString","coordinates":[[121.036455,14.735471],[121.036634,14.735608],[121.036669,14.735627],[121.036715,14.735639],[121.036758,14.735644],[121.037291,14.735669]]}},{"type":"Feature","properties":{"name":"Molave Street","highway":"residential","osm_id":28189189},"geometry":{"type":"LineString","coordinates":[[121.036644,14.735258],[121.036765,14.735345],[121.036818,14.735369],[121.036883,14.735385],[121.036954,14.735393],[121.037624,14.735407],[121.038411,14.735424]]}},{"type":"Feature","properties":{"name":"Apitong Street","highway":"residential","osm_id":28189191},"geometry":{"type":"LineString","coordinates":[[121.037015,14.734866],[121.037035,14.734883],[121.037788,14.734888],[121.038293,14.734904],[121.038308,14.73491]]}},{"type":"Feature","properties":{"name":"Yakal Street","highway":"residential","osm_id":28189192},"geometry":{"type":"LineString","coordinates":[[121.036691,14.734321],[121.036786,14.73431],[121.036846,14.734308],[121.036907,14.734312],[121.03696,14.734326],[121.036991,14.73435],[121.037011,14.73439],[121.037015,14.734437],[121.037013,14.734611],[121.037007,14.734844],[121.037015,14.734866]]}},{"type":"Feature","properties":{"name":"Tindalo Street","highway":"residential","osm_id":28189193},"geometry":{"type":"LineString","coordinates":[[121.037013,14.734611],[121.037699,14.734628],[121.037737,14.734634],[121.03777,14.734655]]}},{"type":"Feature","properties":{"name":"Punay Street","highway":"residential","osm_id":28189197},"geometry":{"type":"LineString","coordinates":[[121.036036,14.737755],[121.036035,14.73787],[121.035995,14.738753],[121.035956,14.739725],[121.035931,14.740125]]}},{"type":"Feature","properties":{"name":"Susan Street","highway":"residential","osm_id":28599446},"geometry":{"type":"LineString","coordinates":[[121.03188,14.733691],[121.031859,14.733747],[121.031853,14.733808],[121.03182,14.734086],[121.031816,14.734402],[121.031827,14.734688],[121.031841,14.73473],[121.031862,14.734767],[121.032025,14.734867]]}},{"type":"Feature","properties":{"name":"Hercules Street","highway":"residential","osm_id":85692371},"geometry":{"type":"LineString","coordinates":[[121.037903,14.731819],[121.037651,14.732258],[121.037393,14.732715],[121.037136,14.733173],[121.036885,14.733621]]}},{"type":"Feature","properties":{"name":"Bethzaida Street","highway":"residential","osm_id":85692372},"geometry":{"type":"LineString","coordinates":[[121.037136,14.733173],[121.036989,14.733092],[121.036276,14.732696],[121.035384,14.73225]]}},{"type":"Feature","properties":{"name":"Bethzaida Street","highway":"residential","osm_id":85692373},"geometry":{"type":"LineString","coordinates":[[121.037136,14.733173],[121.037586,14.733407],[121.037696,14.733464],[121.038035,14.73364]]}},{"type":"Feature","properties":{"name":"Clemente Street","highway":"residential","osm_id":85692374},"geometry":{"type":"LineString","coordinates":[[121.038863,14.733461],[121.038829,14.733453],[121.038797,14.733443],[121.038764,14.733429],[121.038285,14.733188],[121.037393,14.732715],[121.037067,14.732541],[121.036964,14.732485],[121.036528,14.732253],[121.035648,14.731785]]}},{"type":"Feature","properties":{"name":"Kamagong Street","highway":"residential","osm_id":85692547},"geometry":{"type":"LineString","coordinates":[[121.036352,14.735594],[121.036354,14.735614],[121.036495,14.735815],[121.036524,14.735843],[121.036562,14.735867],[121.036611,14.735879],[121.036675,14.735884],[121.037284,14.735905],[121.038378,14.735953],[121.0384,14.735943]]}},{"type":"Feature","properties":{"name":"Fidel Cruz","highway":"residential","osm_id":91763962},"geometry":{"type":"LineString","coordinates":[[121.034359,14.724253],[121.034287,14.724146],[121.03423,14.724097],[121.034123,14.72403],[121.033976,14.723946]]}},{"type":"Feature","properties":{"name":"Diego Silang Street","highway":"residential","osm_id":91764695},"geometry":{"type":"LineString","coordinates":[[121.032915,14.725196],[121.032916,14.725762],[121.032916,14.725928],[121.032926,14.72609],[121.032945,14.726232],[121.032977,14.726378],[121.03304,14.726552],[121.03315,14.726732],[121.033266,14.7269]]}},{"type":"Feature","properties":{"name":"Camia Street","highway":"residential","osm_id":91764895},"geometry":{"type":"LineString","coordinates":[[121.034478,14.727917],[121.034532,14.728207],[121.034561,14.728367],[121.034618,14.728673],[121.03462,14.728692],[121.034654,14.728911]]}},{"type":"Feature","properties":{"name":"J. P. Laurel Street","highway":"tertiary","osm_id":91765129},"geometry":{"type":"LineString","coordinates":[[121.031288,14.726107],[121.031531,14.726587],[121.03152,14.727961]]}},{"type":"Feature","properties":{"name":"Pelarez Street","highway":"residential","osm_id":118606621},"geometry":{"type":"LineString","coordinates":[[121.039399,14.726717],[121.038688,14.726634],[121.038559,14.726639]]}},{"type":"Feature","properties":{"name":"C. Recto Street","highway":"residential","osm_id":188182757},"geometry":{"type":"LineString","coordinates":[[121.034069,14.728157],[121.033385,14.727726]]}},{"type":"Feature","properties":{"name":"Susano Road","highway":"secondary","osm_id":420340721},"geometry":{"type":"LineString","coordinates":[[121.038912,14.725294],[121.038834,14.725649],[121.038749,14.726068],[121.03874,14.726104],[121.038716,14.726208],[121.03867,14.726343],[121.038629,14.726461],[121.038623,14.726479],[121.038559,14.726639]]}},{"type":"Feature","properties":{"name":"Don Mariano Street","highway":"residential","osm_id":445474989},"geometry":{"type":"LineString","coordinates":[[121.032412,14.730993],[121.032114,14.730883],[121.031925,14.730793],[121.031795,14.730705],[121.031515,14.730458],[121.031256,14.730235]]}},{"type":"Feature","properties":{"name":"Doña Engracia Street","highway":"residential","osm_id":445474992},"geometry":{"type":"LineString","coordinates":[[121.032518,14.731409],[121.033165,14.731261],[121.033297,14.731227],[121.033684,14.731158],[121.033879,14.731131],[121.034177,14.731106],[121.034662,14.731094],[121.034721,14.731098],[121.034776,14.731109],[121.034823,14.731127],[121.035068,14.731235]]}},{"type":"Feature","properties":{"name":"Gold Street","highway":"residential","osm_id":553899900},"geometry":{"type":"LineString","coordinates":[[121.035822,14.725734],[121.035885,14.725685],[121.035932,14.725643],[121.035974,14.725595]]}},{"type":"Feature","properties":{"name":"De Jesus Drive","highway":"residential","osm_id":553899901},"geometry":{"type":"LineString","coordinates":[[121.035485,14.726109],[121.035371,14.72612],[121.035265,14.726142],[121.035166,14.726186],[121.035076,14.72625],[121.034945,14.726353],[121.034791,14.726504],[121.034657,14.726627],[121.03457,14.726707],[121.034554,14.72672]]}},{"type":"Feature","properties":{"name":"De Jesus Drive","highway":"residential","osm_id":553899902},"geometry":{"type":"LineString","coordinates":[[121.035962,14.726729],[121.035978,14.726629],[121.036041,14.726245],[121.036047,14.726176],[121.036036,14.726109],[121.036014,14.726059],[121.035822,14.725734]]}},{"type":"Feature","properties":{"name":"De Jesus Drive","highway":"residential","osm_id":553899903},"geometry":{"type":"LineString","coordinates":[[121.036134,14.726816],[121.035962,14.726729],[121.035897,14.726692],[121.03572,14.726592],[121.035632,14.726535],[121.035567,14.72647],[121.035533,14.726395],[121.035505,14.726268],[121.035485,14.726109]]}},{"type":"Feature","properties":{"name":"Topaz Street","highway":"residential","osm_id":555196629},"geometry":{"type":"LineString","coordinates":[[121.037693,14.725965],[121.03773,14.725888],[121.037763,14.725799],[121.037784,14.725723],[121.037838,14.725519]]}},{"type":"Feature","properties":{"name":"Sapphire Street","highway":"residential","osm_id":555196630},"geometry":{"type":"LineString","coordinates":[[121.03802,14.72665],[121.037274,14.726673]]}},{"type":"Feature","properties":{"name":"Susano Road","highway":"secondary","osm_id":555196631},"geometry":{"type":"LineString","coordinates":[[121.037722,14.728109],[121.037692,14.728161],[121.037677,14.728187],[121.037282,14.728892],[121.03719,14.729042],[121.037169,14.729079],[121.036769,14.729781]]}},{"type":"Feature","properties":{"name":"Sapphire Street","highway":"residential","osm_id":555196632},"geometry":{"type":"LineString","coordinates":[[121.038559,14.726639],[121.038306,14.726644]]}},{"type":"Feature","properties":{"name":"Patnubay Street","highway":"residential","osm_id":555197864},"geometry":{"type":"LineString","coordinates":[[121.038701,14.729716],[121.038586,14.7296],[121.03854,14.729526],[121.038505,14.729446],[121.038476,14.729322],[121.038424,14.729007],[121.038389,14.728784],[121.038381,14.728712],[121.038356,14.728601],[121.03832,14.728492],[121.03825,14.728412],[121.038156,14.728339],[121.037722,14.728109]]}},{"type":"Feature","properties":{"name":"C. Recto Street","highway":"residential","osm_id":555203535},"geometry":{"type":"LineString","coordinates":[[121.034286,14.729313],[121.034208,14.72914],[121.034184,14.729084],[121.034165,14.729031],[121.034154,14.72898],[121.034145,14.728919],[121.034069,14.728157]]}},{"type":"Feature","properties":{"name":"Emma Street","highway":"residential","osm_id":576425124},"geometry":{"type":"LineString","coordinates":[[121.03188,14.733691],[121.032084,14.733566],[121.032113,14.733562],[121.032144,14.733574]]}},{"type":"Feature","properties":{"name":"Heavenly Drive","highway":"residential","osm_id":589936571},"geometry":{"type":"LineString","coordinates":[[121.036628,14.728721],[121.036766,14.728558],[121.036906,14.728392],[121.037047,14.728226],[121.037188,14.72806]]}},{"type":"Feature","properties":{"name":"Heavenly Drive","highway":"residential","osm_id":589936580},"geometry":{"type":"LineString","coordinates":[[121.036174,14.728806],[121.03623,14.728772],[121.03639,14.728609],[121.036415,14.728599]]}},{"type":"Feature","properties":{"name":"San Francisco Drive","highway":"service","osm_id":589936612},"geometry":{"type":"LineString","coordinates":[[121.0326,14.729526],[121.03268,14.729175]]}},{"type":"Feature","properties":{"name":"San Francisco Drive","highway":"service","osm_id":589936613},"geometry":{"type":"LineString","coordinates":[[121.032455,14.729477],[121.0326,14.729526]]}},{"type":"Feature","properties":{"name":"San Francisco Drive","highway":"service","osm_id":589936614},"geometry":{"type":"LineString","coordinates":[[121.032603,14.72905],[121.032614,14.729062],[121.032689,14.729085],[121.032693,14.729094],[121.03268,14.729175]]}},{"type":"Feature","properties":{"name":"Fidel Cruz Street","highway":"residential","osm_id":589938477},"geometry":{"type":"LineString","coordinates":[[121.03489,14.724745],[121.034888,14.724507],[121.034801,14.72432],[121.034731,14.724225],[121.034519,14.72407]]}},{"type":"Feature","properties":{"name":"Maximo Drive","highway":"residential","osm_id":589944915},"geometry":{"type":"LineString","coordinates":[[121.039247,14.727026],[121.038415,14.726891]]}},{"type":"Feature","properties":{"name":"Ambrosio Street","highway":"residential","osm_id":589962624},"geometry":{"type":"LineString","coordinates":[[121.039319,14.734843],[121.039304,14.734863],[121.039293,14.73489],[121.039287,14.734932],[121.039283,14.734972],[121.039262,14.735655],[121.039264,14.735818]]}},{"type":"Feature","properties":{"name":"Topaz Street","highway":"residential","osm_id":590137970},"geometry":{"type":"LineString","coordinates":[[121.037274,14.726673],[121.037693,14.725965]]}},{"type":"Feature","properties":{"name":"Isabella","highway":"residential","osm_id":591510327},"geometry":{"type":"LineString","coordinates":[[121.037717,14.737799],[121.037752,14.737714],[121.037808,14.737669]]}},{"type":"Feature","properties":{"name":"Ana Street","highway":"residential","osm_id":591510340},"geometry":{"type":"LineString","coordinates":[[121.036846,14.738207],[121.037424,14.738215]]}},{"type":"Feature","properties":{"name":"Agata Street","highway":"residential","osm_id":591510342},"geometry":{"type":"LineString","coordinates":[[121.036836,14.738468],[121.037386,14.738478],[121.037412,14.738468]]}},{"type":"Feature","properties":{"name":"Isabella Street","highway":"residential","osm_id":591510343},"geometry":{"type":"LineString","coordinates":[[121.037666,14.739927],[121.037682,14.739641],[121.037684,14.739301],[121.037689,14.739031]]}},{"type":"Feature","properties":{"name":"Bianca Street","highway":"residential","osm_id":591510344},"geometry":{"type":"LineString","coordinates":[[121.037984,14.738751],[121.038011,14.737894]]}},{"type":"Feature","properties":{"name":"Camila Street","highway":"residential","osm_id":591510345},"geometry":{"type":"LineString","coordinates":[[121.038557,14.738169],[121.03891,14.738171]]}},{"type":"Feature","properties":{"name":"Camila Street","highway":"residential","osm_id":591510346},"geometry":{"type":"LineString","coordinates":[[121.038917,14.738819],[121.038849,14.738783],[121.03878,14.738743],[121.038601,14.73863],[121.038579,14.738613],[121.038565,14.738594],[121.038555,14.738568],[121.038557,14.738169],[121.038556,14.738121]]}},{"type":"Feature","properties":{"name":"Celia Street","highway":"residential","osm_id":591510347},"geometry":{"type":"LineString","coordinates":[[121.037682,14.739641],[121.037976,14.739641],[121.038243,14.739641],[121.038524,14.739636],[121.038756,14.73944]]}},{"type":"Feature","properties":{"name":"Buena Street","highway":"residential","osm_id":591510348},"geometry":{"type":"LineString","coordinates":[[121.038289,14.737898],[121.038279,14.738757]]}},{"type":"Feature","properties":{"name":"Adriana Street","highway":"residential","osm_id":591510349},"geometry":{"type":"LineString","coordinates":[[121.036765,14.740298],[121.036793,14.7402],[121.036792,14.739923],[121.036826,14.738751],[121.036836,14.738468],[121.036846,14.738207],[121.036872,14.737549],[121.036876,14.737444]]}},{"type":"Feature","properties":{"name":"Ciara Street","highway":"residential","osm_id":591510350},"geometry":{"type":"LineString","coordinates":[[121.039207,14.738722],[121.039205,14.737974],[121.039197,14.737945],[121.039173,14.737914]]}},{"type":"Feature","properties":{"name":"Jordan Street","highway":"residential","osm_id":591510351},"geometry":{"type":"LineString","coordinates":[[121.038971,14.739879],[121.039386,14.739486],[121.039403,14.739451],[121.039408,14.739408],[121.039407,14.738953],[121.03938,14.737717],[121.039385,14.737031]]}},{"type":"Feature","properties":{"name":"Tanguile Street","highway":"residential","osm_id":591512031},"geometry":{"type":"LineString","coordinates":[[121.038415,14.73516],[121.038428,14.73519],[121.038411,14.735424],[121.038407,14.73569],[121.038414,14.73592],[121.0384,14.735943]]}},{"type":"Feature","properties":{"name":"Apitong Street","highway":"residential","osm_id":591512032},"geometry":{"type":"LineString","coordinates":[[121.038308,14.73491],[121.038318,14.734925],[121.038309,14.735157]]}},{"type":"Feature","properties":{"name":"Doña Azucena Street","highway":"residential","osm_id":710056991},"geometry":{"type":"LineString","coordinates":[[121.034449,14.732836],[121.034404,14.732906],[121.034353,14.732974],[121.034303,14.733021],[121.03398,14.733263],[121.033673,14.733436],[121.03361,14.733471],[121.033555,14.733494],[121.033496,14.733508],[121.033421,14.733513],[121.033242,14.73351],[121.032731,14.733502]]}},{"type":"Feature","properties":{"name":"Doña Azucena Street","highway":"residential","osm_id":710056992},"geometry":{"type":"LineString","coordinates":[[121.034485,14.732772],[121.034449,14.732836]]}},{"type":"Feature","properties":{"name":"Susano Road","highway":"secondary","osm_id":710056993},"geometry":{"type":"LineString","coordinates":[[121.033605,14.735333],[121.033564,14.735416],[121.033478,14.735562],[121.033402,14.735699],[121.033332,14.735828],[121.033126,14.736176],[121.033097,14.736229],[121.032912,14.736572],[121.032775,14.736841],[121.032755,14.736888],[121.032721,14.736981],[121.03263,14.737269]]}},{"type":"Feature","properties":{"name":"Susano Road","highway":"secondary","osm_id":710056994},"geometry":{"type":"LineString","coordinates":[[121.034888,14.73312],[121.034859,14.733167],[121.034827,14.733224],[121.034683,14.733483],[121.034588,14.733647],[121.034338,14.734079],[121.034292,14.734155],[121.03427,14.734192],[121.034243,14.73424],[121.034011,14.734636]]}},{"type":"Feature","properties":{"name":"Jordan Street","highway":"residential","osm_id":710056995},"geometry":{"type":"LineString","coordinates":[[121.037646,14.734053],[121.037623,14.734025]]}},{"type":"Feature","properties":{"name":"Fatima Street","highway":"residential","osm_id":890191550},"geometry":{"type":"LineString","coordinates":[[121.037976,14.739641],[121.03799,14.739039]]}},{"type":"Feature","properties":{"name":"Diana Street","highway":"residential","osm_id":890191551},"geometry":{"type":"LineString","coordinates":[[121.03711,14.739314],[121.037684,14.739301]]}},{"type":"Feature","properties":{"name":"Emilia Street","highway":"residential","osm_id":890191553},"geometry":{"type":"LineString","coordinates":[[121.036792,14.739923],[121.037075,14.739925],[121.037666,14.739927],[121.038301,14.739931],[121.038337,14.739934]]}},{"type":"Feature","properties":{"name":"Estela Street","highway":"residential","osm_id":890191554},"geometry":{"type":"LineString","coordinates":[[121.036793,14.7402],[121.038279,14.740203],[121.038312,14.740196],[121.038331,14.74018],[121.038356,14.739961],[121.038337,14.739934]]}},{"type":"Feature","properties":{"name":"Alicia Street","highway":"residential","osm_id":890191555},"geometry":{"type":"LineString","coordinates":[[121.038279,14.738757],[121.037984,14.738751],[121.037686,14.738748],[121.036826,14.738751]]}},{"type":"Feature","properties":{"name":"Acacia Street","highway":"residential","osm_id":894498494},"geometry":{"type":"LineString","coordinates":[[121.036002,14.733147],[121.03617,14.73287],[121.036276,14.732696]]}},{"type":"Feature","properties":{"name":"San Francisco Drive","highway":"service","osm_id":894502513},"geometry":{"type":"LineString","coordinates":[[121.0326,14.729526],[121.03274,14.729579],[121.032851,14.729601],[121.032862,14.729603],[121.032871,14.729603],[121.032878,14.729599],[121.032883,14.729592],[121.032887,14.729581],[121.032924,14.729422]]}},{"type":"Feature","properties":{"name":"Jordan Street","highway":"residential","osm_id":894982601},"geometry":{"type":"LineString","coordinates":[[121.038122,14.734554],[121.038014,14.734548],[121.037978,14.734534],[121.037875,14.734441],[121.037837,14.734369],[121.037802,14.734332],[121.03778,14.734307],[121.037765,14.734269],[121.037705,14.734217],[121.037688,14.734196],[121.03768,14.734179],[121.037663,14.734126],[121.037658,14.734093],[121.037646,14.734053]]}},{"type":"Feature","properties":{"name":"Mango Street","highway":"residential","osm_id":894983301},"geometry":{"type":"LineString","coordinates":[[121.037624,14.735407],[121.037613,14.735678]]}},{"type":"Feature","properties":{"name":"Fidel Cruz","highway":"residential","osm_id":902903689},"geometry":{"type":"LineString","coordinates":[[121.034565,14.724708],[121.03455,14.724652]]}},{"type":"Feature","properties":{"name":"Celia Street","highway":"residential","osm_id":930906220},"geometry":{"type":"LineString","coordinates":[[121.038917,14.738819],[121.03891,14.738171],[121.038911,14.737889]]}},{"type":"Feature","properties":{"name":"Ciara Street","highway":"residential","osm_id":930906222},"geometry":{"type":"LineString","coordinates":[[121.038756,14.739835],[121.038851,14.739744],[121.039199,14.739411],[121.039212,14.739383],[121.03922,14.739351],[121.039211,14.739097],[121.039207,14.738722]]}},{"type":"Feature","properties":{"name":"Mango Street","highway":"residential","osm_id":934295869},"geometry":{"type":"LineString","coordinates":[[121.037613,14.735678],[121.038407,14.73569]]}},{"type":"Feature","properties":{"name":"Susano Road","highway":"secondary","osm_id":941731840},"geometry":{"type":"LineString","coordinates":[[121.036769,14.729781],[121.036375,14.730475],[121.036153,14.730866],[121.036099,14.73096],[121.035993,14.731171],[121.035909,14.731321],[121.035712,14.731674],[121.035648,14.731785],[121.035446,14.732142],[121.035384,14.73225],[121.035144,14.73269],[121.034927,14.733057]]}},{"type":"Feature","properties":{"name":"Susano Road","highway":"secondary","osm_id":941737970},"geometry":{"type":"LineString","coordinates":[[121.034011,14.734636],[121.033987,14.734679],[121.033865,14.734894],[121.03384,14.734936],[121.033605,14.735333]]}},{"type":"Feature","properties":{"name":"Osmeña Street","highway":"residential","osm_id":1018351788},"geometry":{"type":"LineString","coordinates":[[121.033417,14.728891],[121.033611,14.728968],[121.033746,14.729013],[121.033845,14.729036],[121.033954,14.729049],[121.034045,14.729046],[121.034165,14.729031]]}},{"type":"Feature","properties":{"name":"Magsaysay Street","highway":"tertiary","osm_id":1018351790},"geometry":{"type":"LineString","coordinates":[[121.031116,14.728009],[121.03152,14.727961]]}},{"type":"Feature","properties":{"name":"J. P. Laurel Street","highway":"residential","osm_id":1018351791},"geometry":{"type":"LineString","coordinates":[[121.030558,14.72595],[121.03057,14.725914],[121.030598,14.725893],[121.031102,14.725855],[121.031123,14.725865],[121.031142,14.725882],[121.031288,14.726107]]}},{"type":"Feature","properties":{"name":"Don Alejandro Avenue","highway":"tertiary","osm_id":1047799203},"geometry":{"type":"LineString","coordinates":[[121.033687,14.734855],[121.033632,14.734825],[121.033609,14.734787]]}},{"type":"Feature","properties":{"name":"Don Alejandro Avenue","highway":"tertiary","osm_id":1047799204},"geometry":{"type":"LineString","coordinates":[[121.032576,14.733203],[121.03257,14.733189],[121.03248,14.732975],[121.032449,14.732858],[121.032317,14.732353],[121.032194,14.731883],[121.032171,14.731792],[121.032147,14.731702],[121.032108,14.731551],[121.032054,14.731356]]}},{"type":"Feature","properties":{"name":"Don Alejandro Avenue","highway":"tertiary","osm_id":1047799205},"geometry":{"type":"LineString","coordinates":[[121.032616,14.73328],[121.032576,14.733203]]}},{"type":"Feature","properties":{"name":"Isabella","highway":"residential","osm_id":1058665171},"geometry":{"type":"LineString","coordinates":[[121.03774,14.73788],[121.037717,14.737799]]}},{"type":"Feature","properties":{"name":"Sampaguita","highway":"residential","osm_id":1059324669},"geometry":{"type":"LineString","coordinates":[[121.033839,14.724388],[121.033798,14.724388]]}},{"type":"Feature","properties":{"name":"Gold Street","highway":"residential","osm_id":1059325517},"geometry":{"type":"LineString","coordinates":[[121.035974,14.725595],[121.035999,14.725559],[121.036021,14.725518],[121.036036,14.725472],[121.036043,14.725429]]}},{"type":"Feature","properties":{"name":"Sapphire Street","highway":"residential","osm_id":1059325519},"geometry":{"type":"LineString","coordinates":[[121.038306,14.726644],[121.03802,14.72665]]}},{"type":"Feature","properties":{"name":"Osmeña Street","highway":"residential","osm_id":1059398198},"geometry":{"type":"LineString","coordinates":[[121.031579,14.728519],[121.031859,14.728473],[121.032108,14.72844],[121.032348,14.728439],[121.032482,14.728467],[121.032643,14.72854],[121.032733,14.728581],[121.033417,14.728891]]}},{"type":"Feature","properties":{"name":"Isabella Street","highway":"residential","osm_id":1092253190},"geometry":{"type":"LineString","coordinates":[[121.037689,14.739031],[121.037686,14.738748],[121.03774,14.73788]]}},{"type":"Feature","properties":{"name":"Gabriela Street","highway":"residential","osm_id":1092253191},"geometry":{"type":"LineString","coordinates":[[121.038524,14.739636],[121.038528,14.739281]]}},{"type":"Feature","properties":{"name":"Felipa Street","highway":"residential","osm_id":1092253192},"geometry":{"type":"LineString","coordinates":[[121.038243,14.739641],[121.038266,14.739105]]}},{"type":"Feature","properties":{"name":"Dahlia Street","highway":"residential","osm_id":1105408209},"geometry":{"type":"LineString","coordinates":[[121.033683,14.727271],[121.033826,14.727369],[121.033924,14.727435],[121.033972,14.727473],[121.03403,14.727533],[121.034227,14.727764],[121.034256,14.727794],[121.034289,14.72782],[121.034334,14.727847],[121.034478,14.727917]]}},{"type":"Feature","properties":{"name":"Pangaral Street","highway":"residential","osm_id":1105408217},"geometry":{"type":"LineString","coordinates":[[121.038334,14.728005],[121.038279,14.728109],[121.038156,14.728339]]}},{"type":"Feature","properties":{"name":"General Malvar Street","highway":"residential","osm_id":1105408240},"geometry":{"type":"LineString","coordinates":[[121.035561,14.727603],[121.035535,14.727602],[121.035046,14.727264],[121.034984,14.72723],[121.034913,14.727195],[121.034857,14.727161]]}},{"type":"Feature","properties":{"name":"JoyVille Drive","highway":"residential","osm_id":1106232258},"geometry":{"type":"LineString","coordinates":[[121.034243,14.73424],[121.0346,14.734424]]}},{"type":"Feature","properties":{"name":"Merry Street","highway":"residential","osm_id":1106233017},"geometry":{"type":"LineString","coordinates":[[121.035751,14.735952],[121.035324,14.735967],[121.035304,14.735953]]}},{"type":"Feature","properties":{"name":"Eden Street","highway":"residential","osm_id":1115641814},"geometry":{"type":"LineString","coordinates":[[121.039091,14.732435],[121.038789,14.73228],[121.037903,14.731819],[121.037044,14.731347],[121.036153,14.730866]]}},{"type":"Feature","properties":{"name":"Susano Road","highway":"secondary","osm_id":1160607519},"geometry":{"type":"LineString","coordinates":[[121.038559,14.726639],[121.038415,14.726891],[121.038275,14.727138],[121.038177,14.727309],[121.038153,14.727351],[121.037983,14.72765],[121.037933,14.727735],[121.037865,14.727857],[121.037825,14.727921],[121.037742,14.728072],[121.037722,14.728109]]}},{"type":"Feature","properties":{"name":"Sampaloc Street","highway":"residential","osm_id":1236897498},"geometry":{"type":"LineString","coordinates":[[121.037291,14.735669],[121.037284,14.735905]]}},{"type":"Feature","properties":{"name":"Dau Street","highway":"residential","osm_id":1236897499},"geometry":{"type":"LineString","coordinates":[[121.03678,14.735068],[121.036644,14.735258],[121.036455,14.735471],[121.036362,14.735573],[121.036352,14.735594]]}},{"type":"Feature","properties":{"name":"Tindalo Street","highway":"residential","osm_id":1236897500},"geometry":{"type":"LineString","coordinates":[[121.03777,14.734655],[121.037788,14.734682],[121.037791,14.734725],[121.037788,14.734888]]}},{"type":"Feature","properties":{"name":"Hercules Street","highway":"residential","osm_id":1236897502},"geometry":{"type":"LineString","coordinates":[[121.036885,14.733621],[121.036664,14.734067]]}},{"type":"Feature","properties":{"name":"Doña Azucena Street","highway":"residential","osm_id":1242120913},"geometry":{"type":"LineString","coordinates":[[121.035283,14.731133],[121.035068,14.731235]]}},{"type":"Feature","properties":{"name":"Asuncion Street","highway":"residential","osm_id":1242120914},"geometry":{"type":"LineString","coordinates":[[121.035192,14.731995],[121.035195,14.731997],[121.035446,14.732142]]}},{"type":"Feature","properties":{"name":"Don Alejandro Avenue","highway":"tertiary","osm_id":1242120916},"geometry":{"type":"LineString","coordinates":[[121.033865,14.734894],[121.03371,14.734815]]}},{"type":"Feature","properties":{"name":"Don Alejandro Avenue","highway":"tertiary","osm_id":1242120917},"geometry":{"type":"LineString","coordinates":[[121.03384,14.734936],[121.033687,14.734855]]}},{"type":"Feature","properties":{"name":"Don Alejandro Avenue","highway":"tertiary","osm_id":1242120918},"geometry":{"type":"LineString","coordinates":[[121.03371,14.734815],[121.033655,14.734786],[121.033609,14.734787]]}},{"type":"Feature","properties":{"name":"General Malvar Street","highway":"residential","osm_id":1243985449},"geometry":{"type":"LineString","coordinates":[[121.034554,14.72672],[121.034419,14.726563]]}},{"type":"Feature","properties":{"name":"E. Aguinaldo Street","highway":"residential","osm_id":1243985450},"geometry":{"type":"LineString","coordinates":[[121.033072,14.728203],[121.033385,14.727726],[121.033683,14.727271]]}},{"type":"Feature","properties":{"name":"Diego Silang Street","highway":"residential","osm_id":1243985451},"geometry":{"type":"LineString","coordinates":[[121.033266,14.7269],[121.033329,14.726985],[121.033399,14.727061],[121.033466,14.727116],[121.033553,14.727178],[121.033683,14.727271]]}},{"type":"Feature","properties":{"name":"General Malvar Street","highway":"residential","osm_id":1243985454},"geometry":{"type":"LineString","coordinates":[[121.034419,14.726563],[121.034241,14.726308],[121.034199,14.726245],[121.03413,14.726133],[121.034096,14.726066],[121.034079,14.725978],[121.034055,14.725221],[121.034032,14.725114],[121.034013,14.725046],[121.033979,14.72499],[121.033929,14.724941],[121.033874,14.724912],[121.03382,14.724892]]}},{"type":"Feature","properties":{"name":"E. Aguinaldo Street","highway":"residential","osm_id":1243985455},"geometry":{"type":"LineString","coordinates":[[121.032971,14.728347],[121.033072,14.728203]]}},{"type":"Feature","properties":{"name":"Magsaysay Street","highway":"residential","osm_id":1243985456},"geometry":{"type":"LineString","coordinates":[[121.032555,14.727897],[121.032609,14.72792],[121.032656,14.727943],[121.033072,14.728203],[121.033406,14.728412],[121.03345,14.72845],[121.03348,14.728496],[121.033499,14.728549],[121.033503,14.728598],[121.033501,14.728646],[121.033489,14.728694],[121.033417,14.728891]]}},{"type":"Feature","properties":{"name":"Magsaysay Street","highway":"residential","osm_id":1243985457},"geometry":{"type":"LineString","coordinates":[[121.03152,14.727961],[121.032121,14.727895],[121.03226,14.727884],[121.032369,14.727878],[121.032439,14.727879],[121.032501,14.727886],[121.032555,14.727897]]}},{"type":"Feature","properties":{"name":"De Jesus Drive","highway":"residential","osm_id":1243985458},"geometry":{"type":"LineString","coordinates":[[121.035485,14.726109],[121.035442,14.725658],[121.035435,14.725529]]}},{"type":"Feature","properties":{"name":"De Jesus Drive","highway":"residential","osm_id":1243985459},"geometry":{"type":"LineString","coordinates":[[121.035822,14.725734],[121.035733,14.725608],[121.035706,14.725575],[121.035674,14.725554],[121.035628,14.725542],[121.035435,14.725529]]}},{"type":"Feature","properties":{"name":"De Jesus Drive","highway":"residential","osm_id":1243985460},"geometry":{"type":"LineString","coordinates":[[121.035435,14.725529],[121.035329,14.725525],[121.035269,14.725529],[121.035227,14.725542],[121.035185,14.725566],[121.034566,14.726106]]}},{"type":"Feature","properties":{"name":"Adelina Street","highway":"residential","osm_id":1283208622},"geometry":{"type":"LineString","coordinates":[[121.03774,14.73788],[121.037447,14.737772],[121.036872,14.737549]]}},{"type":"Feature","properties":{"name":"Claudia Street","highway":"residential","osm_id":1284270820},"geometry":{"type":"LineString","coordinates":[[121.037116,14.739033],[121.037152,14.739029],[121.037689,14.739031],[121.03799,14.739039],[121.038157,14.739032],[121.03821,14.739047],[121.038266,14.739105],[121.038528,14.739281],[121.038756,14.73944]]}},{"type":"Feature","properties":{"name":"Celia Street","highway":"residential","osm_id":1284270821},"geometry":{"type":"LineString","coordinates":[[121.038756,14.73944],[121.038909,14.739304],[121.038921,14.739285],[121.03893,14.739249],[121.038926,14.739159],[121.038917,14.738819]]}},{"type":"Feature","properties":{"name":"Adelina Street","highway":"residential","osm_id":1284270822},"geometry":{"type":"LineString","coordinates":[[121.039173,14.737914],[121.039137,14.737901],[121.038911,14.737889],[121.038289,14.737898],[121.038011,14.737894],[121.03774,14.73788]]}},{"type":"Feature","properties":{"name":"Alba Street","highway":"residential","osm_id":1284270823},"geometry":{"type":"LineString","coordinates":[[121.037412,14.738468],[121.037426,14.738443],[121.037424,14.738215],[121.037447,14.737772]]}},{"type":"Feature","properties":{"name":"Heavenly Drive","highway":"residential","osm_id":1303916567},"geometry":{"type":"LineString","coordinates":[[121.037079,14.72902],[121.037169,14.729079]]}},{"type":"Feature","properties":{"name":"Sampaloc Street","highway":"residential","osm_id":1303925230},"geometry":{"type":"LineString","coordinates":[[121.038786,14.729791],[121.038701,14.729716]]}},{"type":"Feature","properties":{"name":"Susano Road","highway":"secondary","osm_id":1304682078},"geometry":{"type":"LineString","coordinates":[[121.034927,14.733057],[121.034888,14.73312]]}},{"type":"Feature","properties":{"name":"Isabella","highway":"residential","osm_id":1456159459},"geometry":{"type":"LineString","coordinates":[[121.037808,14.737669],[121.037824,14.737741],[121.037796,14.737823]]}},{"type":"Feature","properties":{"name":"Isabella","highway":"residential","osm_id":1456159460},"geometry":{"type":"LineString","coordinates":[[121.037796,14.737823],[121.03774,14.73788]]}}]}