{
  "type": "FeatureCollection",
  "features": [
    {
      "type": "Feature",
      "properties": {
        "psgc": "1381300000",
        "correspondence": "137404000",
        "name": "Quezon City",
        "geo_lvl": "City",
        "city_lvl": "HUC",
        "level": "municipality",
        "region_psgc": "1300000000",
        "province_psgc": "1300000000"
      },
      "geometry": {
        "type": "Polygon",
        "coordinates": [
          [
            [
              121.10670234300005,
              14.675499389000038
            ],
            [
              121.10501346,
              14.674736042000063
            ],
            [
              121.10266634800007,
              14.67167336500006
            ],
            [
              121.099626682,
              14.669651417000068
            ],
            [
              121.09861626600002,
              14.667636759000061
            ],
            [
              121.09882837200007,
              14.666110849000063
            ],
            [
              121.09772600800011,
              14.663973611000074
            ],
            [
              121.09521536200009,
              14.66778462800005
            ],
            [
              121.09180481500005,
              14.664279691000047
            ],
            [
              121.08976019500005,
              14.66251567200004
            ],
            [
              121.0891874670001,
              14.659933092000074
            ],
            [
              121.08894474200008,
              14.656023565000055
            ],
            [
              121.0873358130001,
              14.65224377800007
            ],
            [
              121.08550148200004,
              14.652697972000055
            ],
            [
              121.08497514300007,
              14.65147422900003
            ],
            [
              121.08586631500009,
              14.649442658000055
            ],
            [
              121.08747404600001,
              14.648406804000047
            ],
            [
              121.08710472000007,
              14.647193488000028
            ],
            [
              121.08770942400008,
              14.644823264000024
            ],
            [
              121.08577766300004,
              14.644432676000065
            ],
            [
              121.08541695200006,
              14.64368083100004
            ],
            [
              121.08370051300005,
              14.64383407300005
            ],
            [
              121.08222618100001,
              14.642168659000049
            ],
            [
              121.08250770400002,
              14.641327715000045
            ],
            [
              121.08152851200009,
              14.639122946000043
            ],
            [
              121.0797679420001,
              14.637863750000065
            ],
            [
              121.07904701000007,
              14.636471510000035
            ],
            [
              121.07726146400012,
              14.635160464000023
            ],
            [
              121.07754588900002,
              14.631639688000064
            ],
            [
              121.07690482300006,
              14.629546291000054
            ],
            [
              121.07440579500008,
              14.628550651000069
            ],
            [
              121.07504564200008,
              14.625175071000058
            ],
            [
              121.07485134300009,
              14.624477300000024
            ],
            [
              121.07648373800009,
              14.621819150000022
            ],
            [
              121.075536456,
              14.61968623100006
            ],
            [
              121.07903023100005,
              14.617969850000065
            ],
            [
              121.07836434800004,
              14.61529151600007
            ],
            [
              121.0796125820001,
              14.61265264800005
            ],
            [
              121.08560480100004,
              14.608248852000031
            ],
            [
              121.08813479100002,
              14.606068595000067
            ],
            [
              121.08868154700008,
              14.604547189000073
            ],
            [
              121.09034558500002,
              14.601694552000026
            ],
            [
              121.09022672600008,
              14.599483759000066
            ],
            [
              121.08856268800002,
              14.599032092000073
            ],
            [
              121.08744540400005,
              14.599864111000045
            ],
            [
              121.0871125970001,
              14.601290429000073
            ],
            [
              121.0849731190001,
              14.603263502000061
            ],
            [
              121.08280987,
              14.603097099000024
            ],
            [
              121.08233443100005,
              14.601528149000046
            ],
            [
              121.08255804800001,
              14.599221817000057
            ],
            [
              121.08227194300002,
              14.595044767000047
            ],
            [
              121.08246126900008,
              14.592588593000073
            ],
            [
              121.08304477700005,
              14.590232025000034
            ],
            [
              121.07988362900005,
              14.589722746000064
            ],
            [
              121.07979669400004,
              14.591924165000023
            ],
            [
              121.07753224500004,
              14.592828669000028
            ],
            [
              121.07373880000011,
              14.593387968000059
            ],
            [
              121.06984751700008,
              14.593268286000068
            ],
            [
              121.06821923400003,
              14.591994086000057
            ],
            [
              121.05966011600003,
              14.59007071800005
            ],
            [
              121.05728732400007,
              14.589617128000043
            ],
            [
              121.05937078800002,
              14.595790518000058
            ],
            [
              121.05975421200003,
              14.597914198000069
            ],
            [
              121.05924493500004,
              14.601644073000045
            ],
            [
              121.05698226400011,
              14.606653918000063
            ],
            [
              121.05206674800002,
              14.604565912000055
            ],
            [
              121.05003333600007,
              14.609656116000053
            ],
            [
              121.04566732500007,
              14.608639345000029
            ],
            [
              121.04407823200006,
              14.608882567000023
            ],
            [
              121.04299056400009,
              14.60962373700005
            ],
            [
              121.04110943500007,
              14.608861440000055
            ],
            [
              121.0377023420001,
              14.606355012000051
            ],
            [
              121.03685725600008,
              14.608459181000057
            ],
            [
              121.0356836310001,
              14.608590217000028
            ],
            [
              121.03366033100008,
              14.609645783000076
            ],
            [
              121.03116610300003,
              14.612183060000064
            ],
            [
              121.0298228580001,
              14.613123084000051
            ],
            [
              121.02864453200004,
              14.612030739000033
            ],
            [
              121.02590265200001,
              14.612299970000038
            ],
            [
              121.02492460700012,
              14.613417943000059
            ],
            [
              121.02328190000003,
              14.613483535000057
            ],
            [
              121.02306872800011,
              14.611972012000024
            ],
            [
              121.02159291500004,
              14.609916806000058
            ],
            [
              121.0222789930001,
              14.60738009000005
            ],
            [
              121.02000690000011,
              14.604294996000021
            ],
            [
              121.01962265700001,
              14.603057785000033
            ],
            [
              121.01915248400007,
              14.603180344000066
            ],
            [
              121.010431992,
              14.609786651000036
            ],
            [
              121.00178647300004,
              14.61653489300005
            ],
            [
              120.99148629900003,
              14.624330428000064
            ],
            [
              120.98988594100001,
              14.62564046500006
            ],
            [
              120.99022687100012,
              14.627417760000071
            ],
            [
              120.99343821700006,
              14.637072620000026
            ],
            [
              120.99231494800006,
              14.638022979000027
            ],
            [
              120.99127371600002,
              14.639904883000042
            ],
            [
              120.99294598600011,
              14.643771327000024
            ],
            [
              120.99349124100002,
              14.646608790000073
            ],
            [
              120.99402602500004,
              14.647647329000051
            ],
            [
              120.99583824100011,
              14.648932370000068
            ],
            [
              120.99574189600003,
              14.650091837000048
            ],
            [
              120.99661483500006,
              14.653201599000056
            ],
            [
              120.99882198000012,
              14.655787306000036
            ],
            [
              120.99896148300002,
              14.657174245000022
            ],
            [
              120.99997349600005,
              14.658797796000044
            ],
            [
              120.99966159700011,
              14.661869980000063
            ],
            [
              121.00029052100001,
              14.662330674000032
            ],
            [
              121.00069382100003,
              14.664714165000078
            ],
            [
              121.00290500100004,
              14.667149498000072
            ],
            [
              121.00549789400009,
              14.671909959000061
            ],
            [
              121.00661504400011,
              14.673018934000027
            ],
            [
              121.00810978200002,
              14.67347271400007
            ],
            [
              121.01537145100008,
              14.680616881000049
            ],
            [
              121.01874570100006,
              14.685089179000045
            ],
            [
              121.02265398600002,
              14.687140174000035
            ],
            [
              121.02257449100011,
              14.690437151000026
            ],
            [
              121.02366652,
              14.690694062000034
            ],
            [
              121.02462678200004,
              14.693772084000045
            ],
            [
              121.02321862300005,
              14.69575677000006
            ],
            [
              121.02023904300006,
              14.698159821000047
            ],
            [
              121.01807748800002,
              14.700317975000075
            ],
            [
              121.01741082300009,
              14.701962527000035
            ],
            [
              121.01804517500011,
              14.703399596000054
            ],
            [
              121.01770183400004,
              14.704319936000047
            ],
            [
              121.0188946070001,
              14.706589749000045
            ],
            [
              121.01715600000011,
              14.707001663000028
            ],
            [
              121.01701624600003,
              14.708981510000058
            ],
            [
              121.01452979300007,
              14.710004431000073
            ],
            [
              121.01414158800003,
              14.711130226000023
            ],
            [
              121.01481318200001,
              14.713921421000066
            ],
            [
              121.01364662500009,
              14.716456401000073
            ],
            [
              121.01438033300008,
              14.716844606000052
            ],
            [
              121.01443080100012,
              14.719158309000022
            ],
            [
              121.0176983020001,
              14.71948370900003
            ],
            [
              121.01912479600003,
              14.72099741900007
            ],
            [
              121.01912869300008,
              14.722509719000072
            ],
            [
              121.0202148840001,
              14.724787652000032
            ],
            [
              121.02335320700001,
              14.724037701000043
            ],
            [
              121.02558428200007,
              14.725623835000022
            ],
            [
              121.02380790200004,
              14.727136340000072
            ],
            [
              121.02383979900003,
              14.728499939000073
            ],
            [
              121.02622533400006,
              14.728462440000044
            ],
            [
              121.02878736700006,
              14.729425610000021
            ],
            [
              121.02777499400008,
              14.732288591000042
            ],
            [
              121.02808188400002,
              14.733364325000025
            ],
            [
              121.03215825600012,
              14.733171696000056
            ],
            [
              121.03397876600002,
              14.735899964000055
            ],
            [
              121.03789804500002,
              14.736018305000073
            ],
            [
              121.03786539900011,
              14.737582474000021
            ],
            [
              121.03941935900002,
              14.737598432000027
            ],
            [
              121.0394191370001,
              14.739902463000021
            ],
            [
              121.03876741600004,
              14.740554238000072
            ],
            [
              121.04083690900006,
              14.742111187000035
            ],
            [
              121.04995996900004,
              14.742089111000041
            ],
            [
              121.0517839580001,
              14.740567632000023
            ],
            [
              121.05330898600005,
              14.74011838000007
            ],
            [
              121.05332690700004,
              14.742122499000061
            ],
            [
              121.05939574700005,
              14.742442736000044
            ],
            [
              121.06121525100002,
              14.742005834000054
            ],
            [
              121.0624321360001,
              14.742221981000057
            ],
            [
              121.06725470200001,
              14.742203238000059
            ],
            [
              121.0672327310001,
              14.739202104000071
            ],
            [
              121.06872684000007,
              14.739147358000025
            ],
            [
              121.06873313500012,
              14.740353688000027
            ],
            [
              121.07191797200005,
              14.74035953200007
            ],
            [
              121.07305401700012,
              14.741289159000075
            ],
            [
              121.07503917800011,
              14.740194067000061
            ],
            [
              121.07590154000002,
              14.741437949000044
            ],
            [
              121.07780484200009,
              14.742486227000029
            ],
            [
              121.07793937200006,
              14.744757917000072
            ],
            [
              121.07854430900011,
              14.745576093000068
            ],
            [
              121.08066853900004,
              14.74636246700004
            ],
            [
              121.08223488200008,
              14.747933876000047
            ],
            [
              121.08478153300007,
              14.751849308000033
            ],
            [
              121.08510321200004,
              14.755667133000031
            ],
            [
              121.08593385900008,
              14.758682793000048
            ],
            [
              121.08895112500011,
              14.758365389000062
            ],
            [
              121.09102126100004,
              14.758445970000025
            ],
            [
              121.09304510600009,
              14.759429213000033
            ],
            [
              121.0954829210001,
              14.76140784000006
            ],
            [
              121.09601146000011,
              14.761322715000063
            ],
            [
              121.09979889200008,
              14.762714034000055
            ],
            [
              121.09972917900006,
              14.765222305000066
            ],
            [
              121.101977884,
              14.765484873000048
            ],
            [
              121.10491462400012,
              14.762656063000065
            ],
            [
              121.10968224500004,
              14.763837527000021
            ],
            [
              121.11029895500008,
              14.765486012000054
            ],
            [
              121.11324457400008,
              14.76853813100007
            ],
            [
              121.114652653,
              14.772163486000068
            ],
            [
              121.11842563900007,
              14.77338284700005
            ],
            [
              121.11989027600009,
              14.775129153000023
            ],
            [
              121.12119922200009,
              14.77602956000004
            ],
            [
              121.12513574900004,
              14.775459382000065
            ],
            [
              121.12883497500002,
              14.777562997000075
            ],
            [
              121.13106080300008,
              14.776483497000072
            ],
            [
              121.1321174950001,
              14.776390408000054
            ],
            [
              121.13358931500011,
              14.777655922000065
            ],
            [
              121.13497179300009,
              14.776730445000055
            ],
            [
              121.13328835200002,
              14.774261170000045
            ],
            [
              121.1331451210001,
              14.773060869000062
            ],
            [
              121.12984058600011,
              14.772511793000035
            ],
            [
              121.1264728320001,
              14.767236921000062
            ],
            [
              121.12478007000004,
              14.766289029000063
            ],
            [
              121.12555215000009,
              14.764895532000025
            ],
            [
              121.12603578200003,
              14.762583980000045
            ],
            [
              121.12537554800008,
              14.76080457200004
            ],
            [
              121.12336595700003,
              14.759635358000025
            ],
            [
              121.12321421500008,
              14.758019241000056
            ],
            [
              121.12163560400006,
              14.757725479000044
            ],
            [
              121.1209333160001,
              14.755079704000025
            ],
            [
              121.12128729500012,
              14.753899777000072
            ],
            [
              121.12049246400011,
              14.751638564000075
            ],
            [
              121.11822157000006,
              14.749419337000063
            ],
            [
              121.11873846800006,
              14.747704781000039
            ],
            [
              121.11777222700005,
              14.746046385000056
            ],
            [
              121.11836707200007,
              14.743532162000065
            ],
            [
              121.1176365550001,
              14.740768134000064
            ],
            [
              121.11810976400011,
              14.739392745000032
            ],
            [
              121.11959851600011,
              14.739695272000063
            ],
            [
              121.12234659300009,
              14.738127089000045
            ],
            [
              121.12097236300008,
              14.734728619000066
            ],
            [
              121.1187028060001,
              14.732935843000064
            ],
            [
              121.1180229790001,
              14.729928850000022
            ],
            [
              121.11924025400003,
              14.729137145000038
            ],
            [
              121.12032009500001,
              14.726522029000023
            ],
            [
              121.12169877500003,
              14.72522708400004
            ],
            [
              121.12350383900002,
              14.727668790000052
            ],
            [
              121.12614072600002,
              14.726651681000021
            ],
            [
              121.12776692600005,
              14.727108120000025
            ],
            [
              121.12926705300004,
              14.728125032000037
            ],
            [
              121.13085372500007,
              14.726473450000071
            ],
            [
              121.13150281800006,
              14.72453338300005
            ],
            [
              121.13098795500002,
              14.722917543000051
            ],
            [
              121.12581527000009,
              14.721399373000054
            ],
            [
              121.12506357500001,
              14.719831102000057
            ],
            [
              121.1255951930001,
              14.71788936200005
            ],
            [
              121.1246760360001,
              14.716833780000059
            ],
            [
              121.12515949800002,
              14.715554877000045
            ],
            [
              121.12461778900001,
              14.708744601000035
            ],
            [
              121.12375939200001,
              14.707338821000064
            ],
            [
              121.1224033740001,
              14.707811561000028
            ],
            [
              121.12281391300007,
              14.70929198500005
            ],
            [
              121.1197718630001,
              14.711820449000072
            ],
            [
              121.11791254900004,
              14.712185830000067
            ],
            [
              121.11599242800003,
              14.709234545000072
            ],
            [
              121.11640583700012,
              14.705626875000064
            ],
            [
              121.11813914000004,
              14.703424914000038
            ],
            [
              121.12043776900009,
              14.701429566000058
            ],
            [
              121.12010187400006,
              14.698593123000023
            ],
            [
              121.1188702610001,
              14.697485915000073
            ],
            [
              121.11467589100005,
              14.697843459000069
            ],
            [
              121.1123498280001,
              14.696629890000054
            ],
            [
              121.11146916300004,
              14.695667682000021
            ],
            [
              121.11113734900005,
              14.690639048000037
            ],
            [
              121.11216870100009,
              14.684747918000028
            ],
            [
              121.11028854800009,
              14.680571536000059
            ],
            [
              121.10837328900004,
              14.677084282000067
            ],
            [
              121.10670234300005,
              14.675499389000038
            ]
          ]
        ]
      }
    }
  ]
}